GLOBALSTAR M063         
1 26081U 00008A   25187.97146299 -.00000117  00000+0 -49889-3 0  9996
2 26081  51.9970  59.4675 0004857   4.1394 101.4291 11.86174108159922
GLOBALSTAR M062         
1 26082U 00008B   25187.90592355 -.00000015  00000+0  59594-3 0  9998
2 26082  51.9860  37.7952 0007394 147.1740 316.7107 12.43471225499074
GLOBALSTAR M060         
1 26083U 00008C   25187.86734874 -.00000158  00000+0 -66477-3 0  9995
2 26083  52.0045   0.7006 0003620 152.3139   2.1521 12.17666271154768
GLOBALSTAR M064         
1 26084U 00008D   25187.90689601 -.00000083  00000+0  58680-5 0  9993
2 26084  52.0006 158.2319 0001302  82.0930 278.0050 11.88534749169448
GLOBALSTAR M065         
1 31571U 07020A   25187.94319106 -.00000086  00000+0  96562-4 0  9998
2 31571  51.9870 166.1360 0010244 353.0932  52.9763 12.62010076835900
GLOBALSTAR M072         
1 31574U 07020D   25187.74183241 -.00000077  00000+0  95226-4 0  9994
2 31574  51.9948 299.9123 0000889  42.1967 109.1973 11.91650049833793
GLOBALSTAR M071         
1 31576U 07020F   25187.97354793 -.00000145  00000+0 -52814-3 0  9995
2 31576  52.0034 175.3836 0000616 152.4877 223.8788 12.18255889497353
